{
  "type": "FeatureCollection",
  "features": [
    {
      "type": "Feature",
      "properties": {
        "norad_id": 67131,
        "name": "ZIYUAN 3-04 (ZY 3-04)",
        "group": "last-30-days",
        "lat": -70.15168217685802,
        "lon": 95.58263877086699,
        "alt_km": 510.9158635081458,
        "timestamp": "2025-12-26T03:50:10.811381+00:00",
        "meta_object_name": "ZIYUAN 3-04 (ZY 3-04)",
        "meta_object_id": "2025-300A",
        "meta_epoch": "2025-12-21T18:22:34.187808",
        "meta_mean_motion": 15.21179479,
        "meta_eccentricity": 0.00027623,
        "meta_inclination": 97.4922,
        "meta_ra_of_asc_node": 69.8294,
        "meta_arg_of_pericenter": 167.6924,
        "meta_mean_anomaly": 192.438,
        "meta_ephemeris_type": 0,
        "meta_classification_type": "U",
        "meta_norad_cat_id": 67131,
        "meta_element_set_no": 999,
        "meta_rev_at_epoch": 86,
        "meta_bstar": 6.5769783e-05,
        "meta_mean_motion_dot": 1.396e-05,
        "meta_mean_motion_ddot": 0,
        "tle_line1": "1 67131U 25300A   25355.76567347  .00001396  00000+0  65770-4 0  9990",
        "tle_line2": "2 67131  97.4922  69.8294 0002762 167.6924 192.4380 15.21179479   860"
      },
      "geometry": {
        "type": "Point",
        "coordinates": [
          95.58263877086699,
          -70.15168217685802
        ]
      }
    },
    {
      "type": "Feature",
      "properties": {
        "norad_id": 67132,
        "name": "CZ-4B R/B",
        "group": "last-30-days",
        "lat": -4.724016972736137,
        "lon": 75.61131448987769,
        "alt_km": 265.31768376936634,
        "timestamp": "2025-12-26T03:50:10.811392+00:00",
        "meta_object_name": "CZ-4B R/B",
        "meta_object_id": "2025-300B",
        "meta_epoch": "2025-12-18T16:13:04.609056",
        "meta_mean_motion": 15.63831828,
        "meta_eccentricity": 0.01741973,
        "meta_inclination": 97.5563,
        "meta_ra_of_asc_node": 66.966,
        "meta_arg_of_pericenter": 9.3582,
        "meta_mean_anomaly": 351.0851,
        "meta_ephemeris_type": 0,
        "meta_classification_type": "U",
        "meta_norad_cat_id": 67132,
        "meta_element_set_no": 999,
        "meta_rev_at_epoch": 40,
        "meta_bstar": 0.00019566238,
        "meta_mean_motion_dot": 0.00040543,
        "meta_mean_motion_ddot": 2.652968e-06,
        "tle_line1": "1 67132U 25300B   25352.67574779  .00040543  26530-5  19566-3 0  9995",
        "tle_line2": "2 67132  97.5563  66.9660 0174197   9.3582 351.0851 15.63831828   407"
      },
      "geometry": {
        "type": "Point",
        "coordinates": [
          75.61131448987769,
          -4.724016972736137
        ]
      }
    },
    {
      "type": "Feature",
      "properties": {
        "norad_id": 67133,
        "name": "KUIPER-00144",
        "group": "last-30-days",
        "lat": -49.52979542823732,
        "lon": -52.55824936085583,
        "alt_km": 467.088356332064,
        "timestamp": "2025-12-26T03:50:10.811402+00:00",
        "meta_object_name": "KUIPER-00144",
        "meta_object_id": "2025-301A",
        "meta_epoch": "2025-12-25T20:00:01.999008",
        "meta_mean_motion": 15.35436166,
        "meta_eccentricity": 0.000611,
        "meta_inclination": 51.8703,
        "meta_ra_of_asc_node": 61.9935,
        "meta_arg_of_pericenter": 121.1367,
        "meta_mean_anomaly": 128.2584,
        "meta_ephemeris_type": 0,
        "meta_classification_type": "U",
        "meta_norad_cat_id": 67133,
        "meta_element_set_no": 999,
        "meta_rev_at_epoch": 178,
        "meta_bstar": -0.00032405,
        "meta_mean_motion_dot": -0.00011703,
        "meta_mean_motion_ddot": 0,
        "tle_line1": "1 67133U 25301A   25359.83335647 -.00011703  00000+0 -32405-3 0  9994",
        "tle_line2": "2 67133  51.8703  61.9935 0006110 121.1367 128.2584 15.35436166  1784"
      },
      "geometry": {
        "type": "Point",
        "coordinates": [
          -52.55824936085583,
          -49.52979542823732
        ]
      }
    },
    {
      "type": "Feature",
      "properties": {
        "norad_id": 67134,
        "name": "KUIPER-00164",
        "group": "last-30-days",
        "lat": -50.491873341970724,
        "lon": -11.911537360120505,
        "alt_km": 464.3982350903698,
        "timestamp": "2025-12-26T03:50:10.811412+00:00",
        "meta_object_name": "KUIPER-00164",
        "meta_object_id": "2025-301B",
        "meta_epoch": "2025-12-25T20:00:01.999008",
        "meta_mean_motion": 15.36135784,
        "meta_eccentricity": 0.0003241,
        "meta_inclination": 51.8724,
        "meta_ra_of_asc_node": 61.9404,
        "meta_arg_of_pericenter": 101.3443,
        "meta_mean_anomaly": 173.1685,
        "meta_ephemeris_type": 0,
        "meta_classification_type": "U",
        "meta_norad_cat_id": 67134,
        "meta_element_set_no": 999,
        "meta_rev_at_epoch": 255,
        "meta_bstar": -0.00020924,
        "meta_mean_motion_dot": -7.86e-05,
        "meta_mean_motion_ddot": 0,
        "tle_line1": "1 67134U 25301B   25359.83335647 -.00007860  00000+0 -20924-3 0  9997",
        "tle_line2": "2 67134  51.8724  61.9404 0003241 101.3443 173.1685 15.36135784  2556"
      },
      "geometry": {
        "type": "Point",
        "coordinates": [
          -11.911537360120505,
          -50.491873341970724
        ]
      }
    },
    {
      "type": "Feature",
      "properties": {
        "norad_id": 67135,
        "name": "KUIPER-00175",
        "group": "last-30-days",
        "lat": -43.6897389171623,
        "lon": 11.708929685452558,
        "alt_km": 461.3749009771409,
        "timestamp": "2025-12-26T03:50:10.811423+00:00",
        "meta_object_name": "KUIPER-00175",
        "meta_object_id": "2025-301C",
        "meta_epoch": "2025-12-25T20:00:01.999008",
        "meta_mean_motion": 15.36590122,
        "meta_eccentricity": 0.0002269,
        "meta_inclination": 51.8742,
        "meta_ra_of_asc_node": 61.8992,
        "meta_arg_of_pericenter": 57.0892,
        "meta_mean_anomaly": 234.3334,
        "meta_ephemeris_type": 0,
        "meta_classification_type": "U",
        "meta_norad_cat_id": 67135,
        "meta_element_set_no": 999,
        "meta_rev_at_epoch": 244,
        "meta_bstar": -0.00016427,
        "meta_mean_motion_dot": -6.342e-05,
        "meta_mean_motion_ddot": 0,
        "tle_line1": "1 67135U 25301C   25359.83335647 -.00006342  00000+0 -16427-3 0  9995",
        "tle_line2": "2 67135  51.8742  61.8992 0002269  57.0892 234.3334 15.36590122  2442"
      },
      "geometry": {
        "type": "Point",
        "coordinates": [
          11.708929685452558,
          -43.6897389171623
        ]
      }
    },
    {
      "type": "Feature",
      "properties": {
        "norad_id": 67136,
        "name": "KUIPER-00179",
        "group": "last-30-days",
        "lat": -48.414469327823106,
        "lon": -1.912822227802603,
        "alt_km": 463.61504858224,
        "timestamp": "2025-12-26T03:50:10.811436+00:00",
        "meta_object_name": "KUIPER-00179",
        "meta_object_id": "2025-301D",
        "meta_epoch": "2025-12-25T20:00:01.999008",
        "meta_mean_motion": 15.36253901,
        "meta_eccentricity": 0.0003024,
        "meta_inclination": 51.8738,
        "meta_ra_of_asc_node": 61.9228,
        "meta_arg_of_pericenter": 80.1312,
        "meta_mean_anomaly": 201.0994,
        "meta_ephemeris_type": 0,
        "meta_classification_type": "U",
        "meta_norad_cat_id": 67136,
        "meta_element_set_no": 999,
        "meta_rev_at_epoch": 255,
        "meta_bstar": -0.00017145,
        "meta_mean_motion_dot": -6.535e-05,
        "meta_mean_motion_ddot": 0,
        "tle_line1": "1 67136U 25301D   25359.83335647 -.00006535  00000+0 -17145-3 0  9998",
        "tle_line2": "2 67136  51.8738  61.9228 0003024  80.1312 201.0994 15.36253901  2551"
      },
      "geometry": {
        "type": "Point",
        "coordinates": [
          -1.912822227802603,
          -48.414469327823106
        ]
      }
    },
    {
      "type": "Feature",
      "properties": {
        "norad_id": 67137,
        "name": "KUIPER-00181",
        "group": "last-30-days",
        "lat": -29.578263278175104,
        "lon": -93.02299782823964,
        "alt_km": 464.520523491884,
        "timestamp": "2025-12-26T03:50:10.811449+00:00",
        "meta_object_name": "KUIPER-00181",
        "meta_object_id": "2025-301E",
        "meta_epoch": "2025-12-25T20:00:01.999008",
        "meta_mean_motion": 15.34426085,
        "meta_eccentricity": 0.0009923,
        "meta_inclination": 51.8638,
        "meta_ra_of_asc_node": 62.0667,
        "meta_arg_of_pericenter": 142.9639,
        "meta_mean_anomaly": 71.0677,
        "meta_ephemeris_type": 0,
        "meta_classification_type": "U",
        "meta_norad_cat_id": 67137,
        "meta_element_set_no": 999,
        "meta_rev_at_epoch": 253,
        "meta_bstar": -0.00035443,
        "meta_mean_motion_dot": -0.0001238,
        "meta_mean_motion_ddot": 0,
        "tle_line1": "1 67137U 25301E   25359.83335647 -.00012380  00000+0 -35443-3 0  9995",
        "tle_line2": "2 67137  51.8638  62.0667 0009923 142.9639  71.0677 15.34426085  2537"
      },
      "geometry": {
        "type": "Point",
        "coordinates": [
          -93.02299782823964,
          -29.578263278175104
        ]
      }
    }
  ]
}